[{"spaceTrack":{"CCSDS_OMM_VERS":"2.0","COMMENT":"GENERATED VIA SPACE-TRACK.ORG API","CREATION_DATE":"2020-09-20 02:31:57","ORIGINATOR":"18 SPCS","OBJECT_NAME":"STARLINK-1048","OBJECT_ID":"2019-074AS","CENTER_NAME":"EARTH","REF_FRAME":"TEME","TIME_SYSTEM":"UTC","MEAN_ELEMENT_THEORY":"SGP4","EPOCH":"2020-09-19 20:00:01.000224","MEAN_MOTION":15.05598779,"ECCENTRICITY":0.0001733,"INCLINATION":52.998,"RA_OF_ASC_NODE":150.8561,"ARG_OF_PERICENTER":85.7916,"MEAN_ANOMALY":302.0308,"EPHEMERIS_TYPE":0,"CLASSIFICATION_TYPE":"U","NORAD_CAT_ID":44753,"ELEMENT_SET_NO":999,"REV_AT_EPOCH":180,"BSTAR":-0.0021129,"MEAN_MOTION_DOT":-0.00030946,"MEAN_MOTION_DDOT":0,"SEMIMAJOR_AXIS":6927.805,"PERIOD":95.643,"APOAPSIS":550.87,"PERIAPSIS":548.469,"OBJECT_TYPE":"PAYLOAD","RCS_SIZE":"LARGE","COUNTRY_CODE":"US","LAUNCH_DATE":"2019-11-11","SITE":"AFETR","DECAY_DATE":null,"DECAYED":0,"FILE":2828634,"GP_ID":161761748,"TLE_LINE0":"0 STARLINK-1048","TLE_LINE1":"1 44753U 19074AS  20263.83334491 -.00030946 +00000-0 -21129-2 0  9993","TLE_LINE2":"2 44753 052.9980 150.8561 0001733 085.7916 302.0308 15.05598779001805"},"version":"v1.0","launch":"5eb87d39ffd86e000604b37d","longitude":61.30542754023219,"latitude":35.328196207848,"height_km":551.6150405169547,"velocity_kms":7.591032571702218,"id":"5eed7714096e59000698566e"},{"spaceTrack":{"CCSDS_OMM_VERS":"2.0","COMMENT":"GENERATED VIA SPACE-TRACK.ORG API","CREATION_DATE":"2020-09-20 06:36:10","ORIGINATOR":"18 SPCS","OBJECT_NAME":"STARLINK-1057","OBJECT_ID":"2019-074BB","CENTER_NAME":"EARTH","REF_FRAME":"TEME","TIME_SYSTEM":"UTC","MEAN_ELEMENT_THEORY":"SGP4","EPOCH":"2020-09-20 04:00:00.999936","MEAN_MOTION":15.05573305,"ECCENTRICITY":0.0001857,"INCLINATION":52.9993,"RA_OF_ASC_NODE":169.357,"ARG_OF_PERICENTER":68.6006,"MEAN_ANOMALY":252.9207,"EPHEMERIS_TYPE":0,"CLASSIFICATION_TYPE":"U","NORAD_CAT_ID":44762,"ELEMENT_SET_NO":999,"REV_AT_EPOCH":4772,"BSTAR":0.0025825,"MEAN_MOTION_DOT":0.00037542,"MEAN_MOTION_DDOT":0,"SEMIMAJOR_AXIS":6927.883,"PERIOD":95.644,"APOAPSIS":551.034,"PERIAPSIS":548.461,"OBJECT_TYPE":"PAYLOAD","RCS_SIZE":"LARGE","COUNTRY_CODE":"US","LAUNCH_DATE":"2019-11-11","SITE":"AFETR","DECAY_DATE":null,"DECAYED":0,"FILE":2828824,"GP_ID":161765794,"TLE_LINE0":"0 STARLINK-1057","TLE_LINE1":"1 44762U 19074BB  20264.16667824  .00037542  00000-0  25825-2 0  9993","TLE_LINE2":"2 44762  52.9993 169.3570 0001857  68.6006 252.9207 15.05573305 47721"},"version":"v1.0","launch":"5eb87d39ffd86e000604b37d","longitude":-20.70657858307897,"latitude":43.77843880352617,"height_km":552.7846785391212,"velocity_kms":7.591519459535496,"id":"5eed7714096e59000698566f"},{"spaceTrack":{"CCSDS_OMM_VERS":"2.0","COMMENT":"GENERATED VIA SPACE-TRACK.ORG API","CREATION_DATE":"2020-09-20 06:36:10","ORIGINATOR":"18 SPCS","OBJECT_NAME":"STARLINK-1051","OBJECT_ID":"2019-074AV","CENTER_NAME":"EARTH","REF_FRAME":"TEME","TIME_SYSTEM":"UTC","MEAN_ELEMENT_THEORY":"SGP4","EPOCH":"2020-09-20 04:00:00.999936","MEAN_MOTION":15.05582545,"ECCENTRICITY":0.0001376,"INCLINATION":53.0013,"RA_OF_ASC_NODE":149.3569,"ARG_OF_PERICENTER":87.9868,"MEAN_ANOMALY":271.6061,"EPHEMERIS_TYPE":0,"CLASSIFICATION_TYPE":"U","NORAD_CAT_ID":44756,"ELEMENT_SET_NO":999,"REV_AT_EPOCH":4800,"BSTAR":-0.0000025338,"MEAN_MOTION_DOT":-0.00000316,"MEAN_MOTION_DDOT":0,"SEMIMAJOR_AXIS":6927.855,"PERIOD":95.644,"APOAPSIS":550.673,"PERIAPSIS":548.766,"OBJECT_TYPE":"PAYLOAD","RCS_SIZE":"LARGE","COUNTRY_CODE":"US","LAUNCH_DATE":"2019-11-11","SITE":"AFETR","DECAY_DATE":null,"DECAYED":0,"FILE":2828824,"GP_ID":161766292,"TLE_LINE0":"0 STARLINK-1051","TLE_LINE1":"1 44756U 19074AV  20264.16667824 -.00000316  00000-0 -25338-5 0  9999","TLE_LINE2":"2 44756  53.0013 149.3569 0001376  87.9868 271.6061 15.05582545 48005"},"version":"v1.0","launch":"5eb87d39ffd86e000604b37d","longitude":16.333823271442867,"latitude":52.44221055650968,"height_km":555.1616083411827,"velocity_kms":7.590904615618605,"id":"5eed7714096e590006985670"},{"spaceTrack":{"CCSDS_OMM_VERS":"2.0","COMMENT":"GENERATED VIA SPACE-TRACK.ORG API","CREATION_DATE":"2020-09-20 14:46:10","ORIGINATOR":"18 SPCS","OBJECT_NAME":"STARLINK-1045","OBJECT_ID":"2019-074AP","CENTER_NAME":"EARTH","REF_FRAME":"TEME","TIME_SYSTEM":"UTC","MEAN_ELEMENT_THEORY":"SGP4","EPOCH":"2020-09-20 14:00:01.000224","MEAN_MOTION":15.26832094,"ECCENTRICITY":0.0001222,"INCLINATION":53.001,"RA_OF_ASC_NODE":186.7841,"ARG_OF_PERICENTER":81.8941,"MEAN_ANOMALY":85.7148,"EPHEMERIS_TYPE":0,"CLASSIFICATION_TYPE":"U","NORAD_CAT_ID":44750,"ELEMENT_SET_NO":999,"REV_AT_EPOCH":4752,"BSTAR":0.042043,"MEAN_MOTION_DOT":0.01225394,"MEAN_MOTION_DDOT":0,"SEMIMAJOR_AXIS":6863.426,"PERIOD":94.312,"APOAPSIS":486.13,"PERIAPSIS":484.452,"OBJECT_TYPE":"PAYLOAD","RCS_SIZE":"LARGE","COUNTRY_CODE":"US","LAUNCH_DATE":"2019-11-11","SITE":"AFETR","DECAY_DATE":null,"DECAYED":0,"FILE":2829292,"GP_ID":161775189,"TLE_LINE0":"0 STARLINK-1045","TLE_LINE1":"1 44750U 19074AP  20264.58334491  .01225394  00000-0  42043-1 0  9992","TLE_LINE2":"2 44750  53.0010 186.7841 0001222  81.8941  85.7148 15.26832094 47525"},"version":"v1.0","launch":"5eb87d39ffd86e000604b37d","longitude":127.48078110349914,"latitude":6.896501630617917,"height_km":485.0862039394551,"velocity_kms":7.624491174142347,"id":"5eed7714096e590006985671"},{"spaceTrack":{"CCSDS_OMM_VERS":"2.0","COMMENT":"GENERATED VIA SPACE-TRACK.ORG API","CREATION_DATE":"2020-09-20 02:31:57","ORIGINATOR":"18 SPCS","OBJECT_NAME":"STARLINK-1046","OBJECT_ID":"2019-074AQ","CENTER_NAME":"EARTH","REF_FRAME":"TEME","TIME_SYSTEM":"UTC","MEAN_ELEMENT_THEORY":"SGP4","EPOCH":"2020-09-19 20:00:01.000224","MEAN_MOTION":15.05582274,"ECCENTRICITY":0.0001497,"INCLINATION":53.0001,"RA_OF_ASC_NODE":190.8524,"ARG_OF_PERICENTER":64.59,"MEAN_ANOMALY":33.4597,"EPHEMERIS_TYPE":0,"CLASSIFICATION_TYPE":"U","NORAD_CAT_ID":44751,"ELEMENT_SET_NO":999,"REV_AT_EPOCH":180,"BSTAR":0.0000085947,"MEAN_MOTION_DOT":-0.00000154,"MEAN_MOTION_DDOT":0,"SEMIMAJOR_AXIS":6927.855,"PERIOD":95.644,"APOAPSIS":550.758,"PERIAPSIS":548.683,"OBJECT_TYPE":"PAYLOAD","RCS_SIZE":"LARGE","COUNTRY_CODE":"US","LAUNCH_DATE":"2019-11-11","SITE":"AFETR","DECAY_DATE":null,"DECAYED":0,"FILE":2828634,"GP_ID":161761040,"TLE_LINE0":"0 STARLINK-1046","TLE_LINE1":"1 44751U 19074AQ  20263.83334491 -.00000154 +00000-0 +85947-5 0  9999","TLE_LINE2":"2 44751 053.0001 190.8524 0001497 064.5900 033.4597 15.05582274001805"},"version":"v1.0","launch":"5eb87d39ffd86e000604b37d","longitude":148.46575893764035,"latitude":-19.139177934098996,"height_km":555.7252381084618,"velocity_kms":7.583535084592294,"id":"5eed7714096e590006985672"},{"spaceTrack":{"CCSDS_OMM_VERS":"2.0","COMMENT":"GENERATED VIA SPACE-TRACK.ORG API","CREATION_DATE":"2020-09-20 06:36:10","ORIGINATOR":"18 SPCS","OBJECT_NAME":"STARLINK-1060","OBJECT_ID":"2019-074BE","CENTER_NAME":"EARTH","REF_FRAME":"TEME","TIME_SYSTEM":"UTC","MEAN_ELEMENT_THEORY":"SGP4","EPOCH":"2020-09-20 04:00:00.999936","MEAN_MOTION":15.05563222,"ECCENTRICITY":0.0001559,"INCLINATION":52.999,"RA_OF_ASC_NODE":169.3576,"ARG_OF_PERICENTER":70.4833,"MEAN_ANOMALY":178.9798,"EPHEMERIS_TYPE":0,"CLASSIFICATION_TYPE":"U","NORAD_CAT_ID":44765,"ELEMENT_SET_NO":999,"REV_AT_EPOCH":4772,"BSTAR":0.0027289,"MEAN_MOTION_DOT":0.00039687,"MEAN_MOTION_DDOT":0,"SEMIMAJOR_AXIS":6927.914,"PERIOD":95.645,"APOAPSIS":550.859,"PERIAPSIS":548.699,"OBJECT_TYPE":"PAYLOAD","RCS_SIZE":"LARGE","COUNTRY_CODE":"US","LAUNCH_DATE":"2019-11-11","SITE":"AFETR","DECAY_DATE":null,"DECAYED":0,"FILE":2828825,"GP_ID":161765803,"TLE_LINE0":"0 STARLINK-1060","TLE_LINE1":"1 44765U 19074BE  20264.16667824  .00039687  00000-0  27289-2 0  9994","TLE_LINE2":"2 44765  52.9990 169.3576 0001559  70.4833 178.9798 15.05563222 47724"},"version":"v1.0","launch":"5eb87d39ffd86e000604b37d","longitude":-74.14820997533484,"latitude":-9.931074188810328,"height_km":552.2403309392112,"velocity_kms":7.586313330063966,"id":"5eed7714096e590006985673"},{"spaceTrack":{"CCSDS_OMM_VERS":"2.0","COMMENT":"GENERATED VIA SPACE-TRACK.ORG API","CREATION_DATE":"2020-09-20 06:36:10","ORIGINATOR":"18 SPCS","OBJECT_NAME":"STARLINK-1047","OBJECT_ID":"2019-074AR","CENTER_NAME":"EARTH","REF_FRAME":"TEME","TIME_SYSTEM":"UTC","MEAN_ELEMENT_THEORY":"SGP4","EPOCH":"2020-09-20 04:00:00.999936","MEAN_MOTION":15.05553865,"ECCENTRICITY":0.0001966,"INCLINATION":53.0003,"RA_OF_ASC_NODE":169.3589,"ARG_OF_PERICENTER":80.8189,"MEAN_ANOMALY":294.6315,"EPHEMERIS_TYPE":0,"CLASSIFICATION_TYPE":"U","NORAD_CAT_ID":44752,"ELEMENT_SET_NO":999,"REV_AT_EPOCH":4772,"BSTAR":0.0026128,"MEAN_MOTION_DOT":0.00037968,"MEAN_MOTION_DDOT":0,"SEMIMAJOR_AXIS":6927.943,"PERIOD":95.645,"APOAPSIS":551.17,"PERIAPSIS":548.446,"OBJECT_TYPE":"PAYLOAD","RCS_SIZE":"LARGE","COUNTRY_CODE":"US","LAUNCH_DATE":"2019-11-11","SITE":"AFETR","DECAY_DATE":null,"DECAYED":0,"FILE":2828824,"GP_ID":161765797,"TLE_LINE0":"0 STARLINK-1047","TLE_LINE1":"1 44752U 19074AR  20264.16667824  .00037968  00000-0  26128-2 0  9991","TLE_LINE2":"2 44752  53.0003 169.3589 0001966  80.8189 294.6315 15.05553865 47725"},"version":"v1.0","launch":"5eb87d39ffd86e000604b37d","longitude":59.51260221232418,"latitude":47.14714502157841,"height_km":553.7083894895559,"velocity_kms":7.591301868535771,"id":"5eed7714096e590006985674"}]